ONEWEB-0656             
1 55817U 23029X   24306.48296146  .00000075  00000+0  15304-3 0  9994
2 55817  87.9298  32.3187 0001267 118.6274 241.4987 13.20769059 82917
ONEWEB-0657             
1 55818U 23029Y   24306.56474876  .00000095  00000+0  20577-3 0  9992
2 55818  87.9175  62.8302 0000772  91.4113 268.7108 13.19725006 80747
ONEWEB-0658             
1 55819U 23029Z   24306.56001748  .00000086  00000+0  18137-3 0  9996
2 55819  87.9177  62.7661 0001904  82.2970 277.8379 13.19725681 80755
ONEWEB-0660             
1 55820U 23029AA  24306.32135751 -.00000070  00000+0 -22367-3 0  9999
2 55820  87.9027  47.5706 0002161  99.5260 260.6114 13.14502529 81512
ONEWEB-0661             
1 55821U 23029AB  24306.58460745  .00000239  00000+0  61032-3 0  9999
2 55821  87.9029  47.5862 0002130 101.8822 258.2547 13.14502637 81530
ONEWEB-0662             
1 55822U 23029AC  24306.54336560 -.00000151  00000+0 -44051-3 0  9990
2 55822  87.9028  47.6019 0002037  95.7632 264.3730 13.14502535 81574
ONEWEB-0663             
1 55823U 23029AD  24306.47333012  .00000106  00000+0  22827-3 0  9997
2 55823  87.9298  32.3800 0002209  97.2249 262.9135 13.20808969 82903
ONEWEB-0664             
1 55824U 23029AE  24306.54609586  .00000015  00000+0  40070-5 0  9999
2 55824  87.9298  32.3813 0002071 111.9201 248.2153 13.20774885 82914
